start=new Date('2021-12-03T00:00:00.000Z').valueOf();
sats=[{"APOAPSIS":"511.296","EPHEMERIS_TYPE":"0","FILE":"3230941","CENTER_NAME":"EARTH","TIME_SYSTEM":"UTC","INCLINATION":"52.9945","MEAN_MOTION_DDOT":"0.0000000000000","ELEMENT_SET_NO":"999","ARG_OF_PERICENTER":"69.3169","PERIAPSIS":"507.648","TLE_LINE2":"2 44238  52.9945 301.1422 0002648  69.3169 290.8108 15.18798696139825","RCS_SIZE":"LARGE","LAUNCH_DATE":"2019-05-24","MEAN_ELEMENT_THEORY":"SGP4","OBJECT_ID":"2019-029D","OBJECT_NAME":"STARLINK-24","NORAD_CAT_ID":"44238","REF_FRAME":"TEME","MEAN_MOTION":"15.18798696","RA_OF_ASC_NODE":"301.1422","CLASSIFICATION_TYPE":"U","ECCENTRICITY":"0.00026480","DECAY_DATE":null,"COUNTRY_CODE":"US","PERIOD":"94.812","MEAN_ANOMALY":"290.8108","GP_ID":"190947821","TLE_LINE1":"1 44238U 19029D   21336.31396208  .00017038  00000-0  82206-3 0  9999","BSTAR":"0.00082206000000","OBJECT_TYPE":"PAYLOAD","SITE":"AFETR","REV_AT_EPOCH":"13982","EPOCH":"2021-12-02T07:32:06.323712","SEMIMAJOR_AXIS":"6887.607","MEAN_MOTION_DOT":"0.00017038"},{"CENTER_NAME":"EARTH","FILE":"3230859","INCLINATION":"52.9784","MEAN_MOTION_DDOT":"0.0000000000000","TIME_SYSTEM":"UTC","EPHEMERIS_TYPE":"0","APOAPSIS":"494.223","OBJECT_ID":"2019-029Q","RA_OF_ASC_NODE":"269.4298","MEAN_MOTION":"15.24811539","REF_FRAME":"TEME","NORAD_CAT_ID":"44249","OBJECT_NAME":"STARLINK-61","RCS_SIZE":"LARGE","TLE_LINE2":"2 44249  52.9784 269.4298 0004178 217.6813 142.3891 15.24811539139299","PERIAPSIS":"488.483","ARG_OF_PERICENTER":"217.6813","ELEMENT_SET_NO":"999","LAUNCH_DATE":"2019-05-24","MEAN_ELEMENT_THEORY":"SGP4","PERIOD":"94.438","COUNTRY_CODE":"US","DECAY_DATE":null,"MEAN_ANOMALY":"142.3891","ECCENTRICITY":"0.00041780","CLASSIFICATION_TYPE":"U","OBJECT_TYPE":"PAYLOAD","SEMIMAJOR_AXIS":"6869.488","EPOCH":"2021-12-02T05:32:04.591680","MEAN_MOTION_DOT":"0.00027432","REV_AT_EPOCH":"13929","SITE":"AFETR","TLE_LINE1":"1 44249U 19029Q   21336.23060870  .00027432  00000-0  11004-2 0  9991","GP_ID":"190943380","BSTAR":"0.00110040000000"},{"RA_OF_ASC_NODE":"300.4125","MEAN_MOTION":"15.21082454","OBJECT_NAME":"STARLINK-71","NORAD_CAT_ID":"44252","REF_FRAME":"TEME","OBJECT_ID":"2019-029T","MEAN_ELEMENT_THEORY":"SGP4","LAUNCH_DATE":"2019-05-24","TLE_LINE2":"2 44252  52.9995 300.4125 0003858  62.4390 297.6997 15.21082454138813","RCS_SIZE":"LARGE","ARG_OF_PERICENTER":"62.4390","ELEMENT_SET_NO":"999","PERIAPSIS":"499.922","INCLINATION":"52.9995","MEAN_MOTION_DDOT":"0.0000000000000","TIME_SYSTEM":"UTC","CENTER_NAME":"EARTH","FILE":"3230859","EPHEMERIS_TYPE":"0","APOAPSIS":"505.231","REV_AT_EPOCH":"13881","SITE":"AFETR","SEMIMAJOR_AXIS":"6880.711","EPOCH":"2021-12-02T07:37:23.674368","MEAN_MOTION_DOT":"0.00015581","OBJECT_TYPE":"PAYLOAD","BSTAR":"0.00070509000000","GP_ID":"190942128","TLE_LINE1":"1 44252U 19029T   21336.31763512  .00015581  00000-0  70509-3 0  9995","MEAN_ANOMALY":"297.6997","COUNTRY_CODE":"US","PERIOD":"94.669","DECAY_DATE":null,"ECCENTRICITY":"0.00038580","CLASSIFICATION_TYPE":"U"},{"NORAD_CAT_ID":"44257","OBJECT_NAME":"STARLINK-43","REF_FRAME":"TEME","MEAN_MOTION":"15.63398580","RA_OF_ASC_NODE":"150.4334","OBJECT_ID":"2019-029Y","LAUNCH_DATE":"2019-05-24","MEAN_ELEMENT_THEORY":"SGP4","ARG_OF_PERICENTER":"199.2072","ELEMENT_SET_NO":"999","PERIAPSIS":"374.951","TLE_LINE2":"2 44257  52.9910 150.4334 0004291 199.2072 160.8779 15.63398580142065","RCS_SIZE":"LARGE","TIME_SYSTEM":"UTC","MEAN_MOTION_DDOT":"0.0000000000000","INCLINATION":"52.9910","FILE":"3231069","CENTER_NAME":"EARTH","APOAPSIS":"380.749","EPHEMERIS_TYPE":"0","SITE":"AFETR","REV_AT_EPOCH":"14206","MEAN_MOTION_DOT":"0.00152786","SEMIMAJOR_AXIS":"6755.985","EPOCH":"2021-12-02T18:26:03.755328","OBJECT_TYPE":"PAYLOAD","BSTAR":"0.00160180000000","GP_ID":"190950863","TLE_LINE1":"1 44257U 19029Y   21336.76809902  .00152786  00000-0  16018-2 0  9996","MEAN_ANOMALY":"160.8779","DECAY_DATE":null,"COUNTRY_CODE":"US","PERIOD":"92.107","CLASSIFICATION_TYPE":"U","ECCENTRICITY":"0.00042910"},{"CLASSIFICATION_TYPE":"U","ECCENTRICITY":"0.00063950","MEAN_ANOMALY":"251.7124","PERIOD":"93.609","COUNTRY_CODE":"US","DECAY_DATE":null,"BSTAR":"0.00087957000000","TLE_LINE1":"1 44282U 19029AZ  21336.38532630  .00033488  00000-0  87957-3 0  9991","GP_ID":"190943130","SEMIMAJOR_AXIS":"6829.224","EPOCH":"2021-12-02T09:14:52.192320","MEAN_MOTION_DOT":"0.00033488","SITE":"AFETR","REV_AT_EPOCH":"13961","OBJECT_TYPE":"PAYLOAD","EPHEMERIS_TYPE":"0","APOAPSIS":"455.456","INCLINATION":"53.0179","MEAN_MOTION_DDOT":"0.0000000000000","TIME_SYSTEM":"UTC","CENTER_NAME":"EARTH","FILE":"3230859","MEAN_ELEMENT_THEORY":"SGP4","LAUNCH_DATE":"2019-05-24","RCS_SIZE":"LARGE","TLE_LINE2":"2 44282  53.0179 210.6226 0006395 108.4574 251.7124 15.38316693139615","PERIAPSIS":"446.721","ARG_OF_PERICENTER":"108.4574","ELEMENT_SET_NO":"999","MEAN_MOTION":"15.38316693","RA_OF_ASC_NODE":"210.6226","REF_FRAME":"TEME","OBJECT_NAME":"STARLINK-80","NORAD_CAT_ID":"44282","OBJECT_ID":"2019-029AZ"},{"DECAY_DATE":null,"COUNTRY_CODE":"US","PERIOD":"95.600","MEAN_ANOMALY":"300.7241","CLASSIFICATION_TYPE":"U","ECCENTRICITY":"0.00024300","OBJECT_TYPE":"PAYLOAD","SITE":"AFETR","REV_AT_EPOCH":"11388","SEMIMAJOR_AXIS":"6925.714","EPOCH":"2021-12-02T10:28:18.536160","MEAN_MOTION_DOT":"0.00024499","GP_ID":"190943420","TLE_LINE1":"1 44713U 19074A   21336.43632565  .00024499  00000-0  16632-2 0  9997","BSTAR":"0.00166320000000","FILE":"3230859","CENTER_NAME":"EARTH","TIME_SYSTEM":"UTC","INCLINATION":"53.0511","MEAN_MOTION_DDOT":"0.0000000000000","APOAPSIS":"549.262","EPHEMERIS_TYPE":"0","OBJECT_ID":"2019-074A","NORAD_CAT_ID":"44713","OBJECT_NAME":"STARLINK-1007","REF_FRAME":"TEME","RA_OF_ASC_NODE":"341.9167","MEAN_MOTION":"15.06280901","ELEMENT_SET_NO":"999","ARG_OF_PERICENTER":"59.3988","PERIAPSIS":"545.896","TLE_LINE2":"2 44713  53.0511 341.9167 0002430  59.3988 300.7241 15.06280901113888","RCS_SIZE":"LARGE","MEAN_ELEMENT_THEORY":"SGP4","LAUNCH_DATE":"2019-11-11"},{"EPHEMERIS_TYPE":"0","APOAPSIS":"548.236","MEAN_MOTION_DDOT":"0.0000000000000","INCLINATION":"53.0558","TIME_SYSTEM":"UTC","CENTER_NAME":"EARTH","FILE":"3230981","MEAN_ELEMENT_THEORY":"SGP4","LAUNCH_DATE":"2019-11-11","TLE_LINE2":"2 44714  53.0558 340.5010 0001504  62.9311 297.1831 15.06406252114102","RCS_SIZE":"LARGE","ARG_OF_PERICENTER":"62.9311","ELEMENT_SET_NO":"999","PERIAPSIS":"546.153","RA_OF_ASC_NODE":"340.5010","MEAN_MOTION":"15.06406252","NORAD_CAT_ID":"44714","OBJECT_NAME":"STARLINK-1008","REF_FRAME":"TEME","OBJECT_ID":"2019-074B","ECCENTRICITY":"0.00015040","CLASSIFICATION_TYPE":"U","MEAN_ANOMALY":"297.1831","COUNTRY_CODE":"US","PERIOD":"95.592","DECAY_DATE":null,"BSTAR":"0.00019192000000","GP_ID":"190948492","TLE_LINE1":"1 44714U 19074B   21336.74685555  .00002579  00000-0  19192-3 0  9999","SITE":"AFETR","REV_AT_EPOCH":"11410","EPOCH":"2021-12-02T17:55:28.319520","SEMIMAJOR_AXIS":"6925.329","MEAN_MOTION_DOT":"0.00002579","OBJECT_TYPE":"PAYLOAD"},{"REF_FRAME":"TEME","NORAD_CAT_ID":"44715","OBJECT_NAME":"STARLINK-1009","MEAN_MOTION":"15.06406952","RA_OF_ASC_NODE":"340.5473","OBJECT_ID":"2019-074C","LAUNCH_DATE":"2019-11-11","MEAN_ELEMENT_THEORY":"SGP4","PERIAPSIS":"545.956","ARG_OF_PERICENTER":"67.7451","ELEMENT_SET_NO":"999","RCS_SIZE":"LARGE","TLE_LINE2":"2 44715  53.0543 340.5473 0001785  67.7451 292.3727 15.06406952114095","TIME_SYSTEM":"UTC","MEAN_MOTION_DDOT":"0.0000000000000","INCLINATION":"53.0543","FILE":"3230981","CENTER_NAME":"EARTH","APOAPSIS":"548.428","EPHEMERIS_TYPE":"0","MEAN_MOTION_DOT":"0.00004993","SEMIMAJOR_AXIS":"6925.327","EPOCH":"2021-12-02T17:39:33.789600","REV_AT_EPOCH":"11409","SITE":"AFETR","OBJECT_TYPE":"PAYLOAD","BSTAR":"0.00035379000000","TLE_LINE1":"1 44715U 19074C   21336.73580775  .00004993  00000-0  35379-3 0  9994","GP_ID":"190948817","MEAN_ANOMALY":"292.3727","DECAY_DATE":null,"PERIOD":"95.592","COUNTRY_CODE":"US","ECCENTRICITY":"0.00017850","CLASSIFICATION_TYPE":"U"},{"OBJECT_TYPE":"PAYLOAD","SEMIMAJOR_AXIS":"6925.357","MEAN_MOTION_DOT":"0.00000126","EPOCH":"2021-12-02T10:08:24.686880","SITE":"AFETR","REV_AT_EPOCH":"11386","TLE_LINE1":"1 44716U 19074D   21336.42250795  .00000126  00000-0  27355-4 0  9997","GP_ID":"190943170","BSTAR":"0.00002735500000","DECAY_DATE":null,"PERIOD":"95.592","COUNTRY_CODE":"US","MEAN_ANOMALY":"293.9845","CLASSIFICATION_TYPE":"U","ECCENTRICITY":"0.00016970","OBJECT_ID":"2019-074D","REF_FRAME":"TEME","OBJECT_NAME":"STARLINK-1010","NORAD_CAT_ID":"44716","MEAN_MOTION":"15.06397211","RA_OF_ASC_NODE":"341.9517","PERIAPSIS":"546.047","ELEMENT_SET_NO":"999","ARG_OF_PERICENTER":"66.1321","RCS_SIZE":"LARGE","TLE_LINE2":"2 44716  53.0574 341.9517 0001697  66.1321 293.9845 15.06397211113864","MEAN_ELEMENT_THEORY":"SGP4","LAUNCH_DATE":"2019-11-11","FILE":"3230859","CENTER_NAME":"EARTH","TIME_SYSTEM":"UTC","INCLINATION":"53.0574","MEAN_MOTION_DDOT":"0.0000000000000","APOAPSIS":"548.397","EPHEMERIS_TYPE":"0"},{"TLE_LINE1":"1 44717U 19074E   21336.35430475  .00001302  00000-0  10627-3 0  9995","GP_ID":"190942920","BSTAR":"0.00010627000000","OBJECT_TYPE":"PAYLOAD","EPOCH":"2021-12-02T08:30:11.930400","SEMIMAJOR_AXIS":"6925.314","MEAN_MOTION_DOT":"0.00001302","REV_AT_EPOCH":"11359","SITE":"AFETR","CLASSIFICATION_TYPE":"U","ECCENTRICITY":"0.00016890","PERIOD":"95.591","COUNTRY_CODE":"US","DECAY_DATE":null,"MEAN_ANOMALY":"292.7291","RCS_SIZE":"LARGE","TLE_LINE2":"2 44717  53.0552   2.2520 0001689  67.3876 292.7291 15.06411423113595","PERIAPSIS":"546.009","ARG_OF_PERICENTER":"67.3876","ELEMENT_SET_NO":"999","LAUNCH_DATE":"2019-11-11","MEAN_ELEMENT_THEORY":"SGP4","OBJECT_ID":"2019-074E","RA_OF_ASC_NODE":"2.2520","MEAN_MOTION":"15.06411423","REF_FRAME":"TEME","NORAD_CAT_ID":"44717","OBJECT_NAME":"STARLINK-1011","EPHEMERIS_TYPE":"0","APOAPSIS":"548.348","CENTER_NAME":"EARTH","FILE":"3230859","INCLINATION":"53.0552","MEAN_MOTION_DDOT":"0.0000000000000","TIME_SYSTEM":"UTC"}];
